#aV2015  2 27  0  0  0.00000000     288 DD+AD WGS84 FIT  NGA
## 1833 432000.00000000   300.00000000 57080 0.0000000000000
+   31     1  2  3  4  5  6  7  8  9 10 11 12 13 14 15 16 17
+         18 19 20 21 22 23 24 25 27 28 29 30 31 32  0  0  0
+          0  0  0  0  0  0  0  0  0  0  0  0  0  0  0  0  0
+          0  0  0  0  0  0  0  0  0  0  0  0  0  0  0  0  0
+          0  0  0  0  0  0  0  0  0  0  0  0  0  0  0  0  0
++         2  2  2  2  2  2  2  2  2  2  2  2  2  2  2  2  2
++         2  2  2  2  2  2  2  2  2  2  2  2  2  2  0  0  0
++         0  0  0  0  0  0  0  0  0  0  0  0  0  0  0  0  0
++         0  0  0  0  0  0  0  0  0  0  0  0  0  0  0  0  0
++         0  0  0  0  0  0  0  0  0  0  0  0  0  0  0  0  0
%c cc cc ccc ccc cccc cccc cccc cccc ccccc ccccc ccccc ccccc
%c cc cc ccc ccc cccc cccc cccc cccc ccccc ccccc ccccc ccccc
%f  0.0000000  0.000000000  0.00000000000  0.000000000000000
%f  0.0000000  0.000000000  0.00000000000  0.000000000000000
%i    0    0    0    0      0      0      0      0         0
%i    0    0    0    0      0      0      0      0         0
/*      NGA, ST. LOUIS,MO.                                  
/*   EPHEMERIS COMPUTED FROM  1 DAYS OF DATA                
/*   EPOCHA SMOOTHER                                       
/* CCCCCCCCCCCCCCCCCCCCCCCCCCCCCCCCCCCCCCCCCCCCCCCCCCCCCCCCC
*  2015  2 27  6 35  0.00000000
P  1  18458.377061   6163.149430  18104.996413     -8.548478                    
V  1  10649.465736  20462.314876 -17603.468520      0.004530                    
P  2 -14280.893569 -22699.410437    634.764373    550.445320                    
V  2   2754.231108  -1339.972445  30988.921694      0.023210                    
P  3  17751.361407  -4374.687531  19289.385740    230.644521                    
V  3 -10521.954471  22128.643545  14661.973452      0.192181                    
P  4  18883.977670  15355.608210  10626.844250     -7.982996                    
V  4   4975.238748  13309.482388 -27000.803867     -0.008316                    
P  5  -8142.653635 -15397.902739 -20057.491784   -273.634477                    
V  5  13127.913745 -21837.508529  11640.819722      0.050417                    
P  6  -3350.606878 -22864.726085  13101.990125     93.914688                    
V  6  10604.985295  13007.161199  25388.810947      0.109778                    
P  7  12969.954442  -7415.755624 -21861.807254    443.615613                    
V  7  14142.266226  24122.474880   -142.268763      0.030961                    
P  8  10442.452758  24786.377076    851.413360     18.017419                    
V  8  -1426.752941   -254.755589  32051.823244      0.003808                    
P  9  23126.517290  -7979.886586 -10365.469693    -98.845689                    
V  9  13219.137676   2162.452680  27843.083759     -0.107572                    
P 10   7448.510507 -24309.163682  -7258.326529   -165.111046                    
V 10   7366.329047  -6036.841865  29738.811432     -0.015339                    
P 11  23012.972682   8718.153736   9646.800984   -560.698094                    
V 11   7385.473023  11654.432892 -26565.538140     -0.026359                    
P 12 -16323.854172    599.586578  20806.575239    272.563384                    
V 12  13059.709745 -23178.052139  11084.447744      0.030148                    
P 13 -16439.939583 -12707.191439 -16624.411613    -91.974831                    
V 13  20899.356731    163.515320 -21101.752358     -0.034747                    
P 14  -5955.939313  14603.030432  21582.541531     83.650183                    
V 14 -26803.286453  -1899.705765  -6321.318106     -0.034740                    
P 15 -25343.384514  -3859.260351  -7634.562508   -234.681968                    
V 15   9285.774382  -3825.854652 -28908.337664     -0.022013                    
P 16   6437.544130  15300.011849 -20698.974100   -152.716299                    
V 16 -14637.708748  21707.250756  11892.511974      0.033832                    
P 17   8484.069568 -14212.436811  21016.539894   -158.147725                    
V 17  26019.432908   1289.679680  -9976.965933     -0.020428                    
P 18 -15387.750947  20598.649520  -5499.402890    382.558890                    
V 18   -122.798227  -8725.967438 -30069.383568      0.027902                    
P 19  22927.139490   8958.746031 -10731.796309   -502.066910                    
V 19 -13294.292159    961.551832 -27611.358189     -0.013960                    
P 20  10024.427315 -24534.728223  -1385.865116    294.121676                    
V 20   4231.483029    213.837754  30957.417643      0.040701                    
P 21 -10029.997182  12466.735174 -20462.714649   -421.009447                    
V 21 -15664.888373 -22910.258819  -6465.037041     -0.039863                    
P 22  -7980.803415  24630.798802   5716.869095    322.795043                    
V 22  -6788.118014   4424.107647 -29857.718572      0.042140                    
P 23  26782.698564   -758.930251   -303.406964    -91.595258                    
V 23    596.477029   2818.057807  31204.972263     -0.025852                    
P 24 -19166.021561  -8916.965091  16137.659604    -44.112804                    
V 24  -9325.879994 -18366.699258 -21043.855820     -0.005838                    
P 25 -17937.454168  13900.180426  13583.681151     -6.865378                    
V 25   6605.755526 -16232.986139  25334.384742     -0.029270                    
P 27  14468.590219  12402.281294 -18551.377845     54.310056                    
V 27 -23438.334141   2032.757802 -16832.176987      0.026690                    
P 28  12647.940569 -23203.180490   2689.259246    422.366709                    
V 28   3077.824919  -1180.635195 -32186.090822      0.027547                    
P 29 -25161.158164   4258.283452  -7247.945228    594.623076                    
V 29  -9177.342741  -2618.451672  30231.139317      0.023070                    
P 30   6021.063154 -17562.120790 -18984.536513    -82.906047                    
V 30  12302.307966  20793.918904 -15387.693514      0.018815                    
P 31   4923.477545  23584.865547  10922.046463    322.367298                    
V 31  -8753.610650 -10848.649085  28049.352786     -0.008558                    
P 32  10818.330088  11544.007851  21371.996927   -213.829200                    
V 32 -15046.029708  22609.744641  -4054.557193      0.092105                    
EOF
